[{"OBJECT_NAME":"STARLINK-2255","OBJECT_ID":"2021-041AW","EPOCH":"2026-03-09T12:30:12.748896","MEAN_MOTION":15.29339204,"ECCENTRICITY":0.00016461,"INCLINATION":53.1569,"RA_OF_ASC_NODE":140.3268,"ARG_OF_PERICENTER":57.6674,"MEAN_ANOMALY":302.4486,"EPHEMERIS_TYPE":0,"CLASSIFICATION_TYPE":"U","NORAD_CAT_ID":48597,"ELEMENT_SET_NO":999,"REV_AT_EPOCH":26633,"BSTAR":0.00043720996,"MEAN_MOTION_DOT":0.00012274,"MEAN_MOTION_DDOT":0},{"OBJECT_NAME":"SL-3 R\/B","OBJECT_ID":"1981-065B","EPOCH":"2026-03-09T21:58:16.284000","MEAN_MOTION":15.33300883,"ECCENTRICITY":0.00117648,"INCLINATION":97.6337,"RA_OF_ASC_NODE":111.1786,"ARG_OF_PERICENTER":10.529,"MEAN_ANOMALY":349.6196,"EPHEMERIS_TYPE":0,"CLASSIFICATION_TYPE":"U","NORAD_CAT_ID":12586,"ELEMENT_SET_NO":999,"REV_AT_EPOCH":43499,"BSTAR":0.00030084921,"MEAN_MOTION_DOT":9.62e-5,"MEAN_MOTION_DDOT":0}]
